[{"OBJECT_NAME":"STARLINK-30704","OBJECT_ID":"2023-148M","EPOCH":"2026-03-09T11:11:38.916096","MEAN_MOTION":15.30195527,"ECCENTRICITY":0.00012368,"INCLINATION":53.1598,"RA_OF_ASC_NODE":102.4833,"ARG_OF_PERICENTER":79.3789,"MEAN_ANOMALY":280.7351,"EPHEMERIS_TYPE":0,"CLASSIFICATION_TYPE":"U","NORAD_CAT_ID":57946,"ELEMENT_SET_NO":999,"REV_AT_EPOCH":13728,"BSTAR":2.904023e-6,"MEAN_MOTION_DOT":-2.73e-6,"MEAN_MOTION_DDOT":0},{"OBJECT_NAME":"COSMOS 1782","OBJECT_ID":"1986-074A","EPOCH":"2026-03-09T22:40:22.374624","MEAN_MOTION":15.33314157,"ECCENTRICITY":0.00054418,"INCLINATION":82.5242,"RA_OF_ASC_NODE":238.1482,"ARG_OF_PERICENTER":197.7479,"MEAN_ANOMALY":162.3574,"EPHEMERIS_TYPE":0,"CLASSIFICATION_TYPE":"U","NORAD_CAT_ID":16986,"ELEMENT_SET_NO":999,"REV_AT_EPOCH":13134,"BSTAR":0.00042191031,"MEAN_MOTION_DOT":0.00013623,"MEAN_MOTION_DDOT":0}]
